stk.v.4.3 

BEGIN Ephemeris 
 
NumberOfEphemerisPoints		146 
ScenarioEpoch	    1 Sep 2020 16:29:46.901740730 
InterpolationMethod		Lagrange 
InterpolationOrder		5 
CentralBody				Earth 
CoordinateSystem			TEME 
CoordinateSystemEpoch	  1 Sep 2020 16:29:46.901740730 
DistanceUnit			Kilometers 
 
EphemerisTimePosVel 
 
       0.00000000   -5454.75063318   -4636.40483283       0.04815291  0.310608494 -0.350959512  7.448653391
 END Ephemeris 
